CCSDS_OMM_VERS = 2.0
CREATION_DATE  = 
ORIGINATOR     = 

OBJECT_NAME    = SL-14 R/B
OBJECT_ID      = 1991-042B
CENTER_NAME    = EARTH
REF_FRAME      = TEME
TIME_SYSTEM    = UTC
MEAN_ELEMENT_THEORY = SGP/SGP4

EPOCH          = 2026-01-15T17:58:45.524928
MEAN_MOTION    = 14.81774346
ECCENTRICITY   = .001838
INCLINATION    = 82.4928
RA_OF_ASC_NODE = 269.8356
ARG_OF_PERICENTER = 57.7557
MEAN_ANOMALY   = 302.5435

EPHEMERIS_TYPE = 0
CLASSIFICATION_TYPE = U
NORAD_CAT_ID   = 21423
ELEMENT_SET_NO = 999
REV_AT_EPOCH   = 84523
BSTAR          = .29744E-4
MEAN_MOTION_DOT = .259E-5
MEAN_MOTION_DDOT = 0

CCSDS_OMM_VERS = 2.0
CREATION_DATE  = 
ORIGINATOR     = 

OBJECT_NAME    = ERS-1
OBJECT_ID      = 1991-050A
CENTER_NAME    = EARTH
REF_FRAME      = TEME
TIME_SYSTEM    = UTC
MEAN_ELEMENT_THEORY = SGP/SGP4

EPOCH          = 2026-01-15T15:50:01.745952
MEAN_MOTION    = 14.39396072
ECCENTRICITY   = .0031978
INCLINATION    = 98.7897
RA_OF_ASC_NODE = 32.5624
ARG_OF_PERICENTER = 1.5808
MEAN_ANOMALY   = 358.5474

EPHEMERIS_TYPE = 0
CLASSIFICATION_TYPE = U
NORAD_CAT_ID   = 21574
ELEMENT_SET_NO = 999
REV_AT_EPOCH   = 80810
BSTAR          = .81109E-4
MEAN_MOTION_DOT = .207E-5
MEAN_MOTION_DDOT = 0

CCSDS_OMM_VERS = 2.0
CREATION_DATE  = 
ORIGINATOR     = 

OBJECT_NAME    = ARIANE 40 R/B
OBJECT_ID      = 1991-050F
CENTER_NAME    = EARTH
REF_FRAME      = TEME
TIME_SYSTEM    = UTC
MEAN_ELEMENT_THEORY = SGP/SGP4

EPOCH          = 2026-01-15T16:45:09.149184
MEAN_MOTION    = 14.42844416
ECCENTRICITY   = .0002367
INCLINATION    = 98.2116
RA_OF_ASC_NODE = 69.8954
ARG_OF_PERICENTER = 216.2446
MEAN_ANOMALY   = 143.8584

EPHEMERIS_TYPE = 0
CLASSIFICATION_TYPE = U
NORAD_CAT_ID   = 21610
ELEMENT_SET_NO = 999
REV_AT_EPOCH   = 81135
BSTAR          = .69692E-4
MEAN_MOTION_DOT = .191E-5
MEAN_MOTION_DDOT = 0

CCSDS_OMM_VERS = 2.0
CREATION_DATE  = 
ORIGINATOR     = 

OBJECT_NAME    = INTERCOSMOS 25
OBJECT_ID      = 1991-086A
CENTER_NAME    = EARTH
REF_FRAME      = TEME
TIME_SYSTEM    = UTC
MEAN_ELEMENT_THEORY = SGP/SGP4

EPOCH          = 2026-01-15T19:35:19.386240
MEAN_MOTION    = 12.11855329
ECCENTRICITY   = .1486006
INCLINATION    = 82.6086
RA_OF_ASC_NODE = 341.9633
ARG_OF_PERICENTER = 230.8909
MEAN_ANOMALY   = 115.0609

EPHEMERIS_TYPE = 0
CLASSIFICATION_TYPE = U
NORAD_CAT_ID   = 21819
ELEMENT_SET_NO = 999
REV_AT_EPOCH   = 49028
BSTAR          = .12668E-3
MEAN_MOTION_DOT = .642E-5
MEAN_MOTION_DDOT = 0

CCSDS_OMM_VERS = 2.0
CREATION_DATE  = 
ORIGINATOR     = 

OBJECT_NAME    = SL-8 R/B
OBJECT_ID      = 1992-008B
CENTER_NAME    = EARTH
REF_FRAME      = TEME
TIME_SYSTEM    = UTC
MEAN_ELEMENT_THEORY = SGP/SGP4

EPOCH          = 2026-01-15T18:47:21.270048
MEAN_MOTION    = 13.75966299
ECCENTRICITY   = .0033392
INCLINATION    = 82.9289
RA_OF_ASC_NODE = 307.1285
ARG_OF_PERICENTER = 283.3292
MEAN_ANOMALY   = 133.3116

EPHEMERIS_TYPE = 0
CLASSIFICATION_TYPE = U
NORAD_CAT_ID   = 21876
ELEMENT_SET_NO = 999
REV_AT_EPOCH   = 70214
BSTAR          = .44867E-4
MEAN_MOTION_DOT = .58E-6
MEAN_MOTION_DDOT = 0

CCSDS_OMM_VERS = 2.0
CREATION_DATE  = 
ORIGINATOR     = 

OBJECT_NAME    = SL-8 R/B
OBJECT_ID      = 1992-020B
CENTER_NAME    = EARTH
REF_FRAME      = TEME
TIME_SYSTEM    = UTC
MEAN_ELEMENT_THEORY = SGP/SGP4

EPOCH          = 2026-01-15T14:14:50.766432
MEAN_MOTION    = 13.75537940
ECCENTRICITY   = .0030251
INCLINATION    = 82.9295
RA_OF_ASC_NODE = 193.1769
ARG_OF_PERICENTER = 86.3484
MEAN_ANOMALY   = 340.8705

EPHEMERIS_TYPE = 0
CLASSIFICATION_TYPE = U
NORAD_CAT_ID   = 21938
ELEMENT_SET_NO = 999
REV_AT_EPOCH   = 69383
BSTAR          = .14085E-3
MEAN_MOTION_DOT = .151E-5
MEAN_MOTION_DDOT = 0

CCSDS_OMM_VERS = 2.0
CREATION_DATE  = 
ORIGINATOR     = 

OBJECT_NAME    = USA 81
OBJECT_ID      = 1992-023A
CENTER_NAME    = EARTH
REF_FRAME      = TEME
TIME_SYSTEM    = UTC
MEAN_ELEMENT_THEORY = SGP/SGP4

EPOCH          = 2026-01-15T20:18:10.875744
MEAN_MOTION    = 14.32342409
ECCENTRICITY   = .000174
INCLINATION    = 85.0103
RA_OF_ASC_NODE = 161.9075
ARG_OF_PERICENTER = 117.6379
MEAN_ANOMALY   = 242.4991

EPHEMERIS_TYPE = 0
CLASSIFICATION_TYPE = U
NORAD_CAT_ID   = 21949
ELEMENT_SET_NO = 999
REV_AT_EPOCH   = 8722
BSTAR          = .45755E-4
MEAN_MOTION_DOT = .143E-5
MEAN_MOTION_DDOT = 0

CCSDS_OMM_VERS = 2.0
CREATION_DATE  = 
ORIGINATOR     = 

OBJECT_NAME    = COSMOS 2219
OBJECT_ID      = 1992-076A
CENTER_NAME    = EARTH
REF_FRAME      = TEME
TIME_SYSTEM    = UTC
MEAN_ELEMENT_THEORY = SGP/SGP4

EPOCH          = 2026-01-15T18:00:03.967488
MEAN_MOTION    = 14.14081360
ECCENTRICITY   = .0020699
INCLINATION    = 71.0619
RA_OF_ASC_NODE = 128.7393
ARG_OF_PERICENTER = 280.2580
MEAN_ANOMALY   = 79.6208

EPHEMERIS_TYPE = 0
CLASSIFICATION_TYPE = U
NORAD_CAT_ID   = 22219
ELEMENT_SET_NO = 999
REV_AT_EPOCH   = 71089
BSTAR          = -.15074E-4
MEAN_MOTION_DOT = -.76E-6
MEAN_MOTION_DDOT = 0

CCSDS_OMM_VERS = 2.0
CREATION_DATE  = 
ORIGINATOR     = 

OBJECT_NAME    = SL-16 R/B
OBJECT_ID      = 1992-076B
CENTER_NAME    = EARTH
REF_FRAME      = TEME
TIME_SYSTEM    = UTC
MEAN_ELEMENT_THEORY = SGP/SGP4

EPOCH          = 2026-01-15T17:42:53.028864
MEAN_MOTION    = 14.16849858
ECCENTRICITY   = .0012924
INCLINATION    = 71.0015
RA_OF_ASC_NODE = 299.9155
ARG_OF_PERICENTER = 186.5043
MEAN_ANOMALY   = 191.3671

EPHEMERIS_TYPE = 0
CLASSIFICATION_TYPE = U
NORAD_CAT_ID   = 22220
ELEMENT_SET_NO = 999
REV_AT_EPOCH   = 71433
BSTAR          = .77053E-4
MEAN_MOTION_DOT = .107E-5
MEAN_MOTION_DDOT = 0

CCSDS_OMM_VERS = 2.0
CREATION_DATE  = 
ORIGINATOR     = 

OBJECT_NAME    = COSMOS 2221
OBJECT_ID      = 1992-080A
CENTER_NAME    = EARTH
REF_FRAME      = TEME
TIME_SYSTEM    = UTC
MEAN_ELEMENT_THEORY = SGP/SGP4

EPOCH          = 2026-01-15T20:48:04.564800
MEAN_MOTION    = 14.95929034
ECCENTRICITY   = .0015117
INCLINATION    = 82.5059
RA_OF_ASC_NODE = 329.6575
ARG_OF_PERICENTER = 17.0684
MEAN_ANOMALY   = 343.1043

EPHEMERIS_TYPE = 0
CLASSIFICATION_TYPE = U
NORAD_CAT_ID   = 22236
ELEMENT_SET_NO = 999
REV_AT_EPOCH   = 77289
BSTAR          = .12784E-3
MEAN_MOTION_DOT = .146E-4
MEAN_MOTION_DDOT = 0

CCSDS_OMM_VERS = 2.0
CREATION_DATE  = 
ORIGINATOR     = 

OBJECT_NAME    = SL-16 R/B
OBJECT_ID      = 1992-093B
CENTER_NAME    = EARTH
REF_FRAME      = TEME
TIME_SYSTEM    = UTC
MEAN_ELEMENT_THEORY = SGP/SGP4

EPOCH          = 2026-01-15T17:40:56.287776
MEAN_MOTION    = 14.15437313
ECCENTRICITY   = .0003752
INCLINATION    = 71.0222
RA_OF_ASC_NODE = 115.4311
ARG_OF_PERICENTER = 356.8886
MEAN_ANOMALY   = 3.2213

EPHEMERIS_TYPE = 0
CLASSIFICATION_TYPE = U
NORAD_CAT_ID   = 22285
ELEMENT_SET_NO = 999
REV_AT_EPOCH   = 70566
BSTAR          = .16997E-3
MEAN_MOTION_DOT = .284E-5
MEAN_MOTION_DDOT = 0

CCSDS_OMM_VERS = 2.0
CREATION_DATE  = 
ORIGINATOR     = 

OBJECT_NAME    = COSMOS 2228
OBJECT_ID      = 1992-094A
CENTER_NAME    = EARTH
REF_FRAME      = TEME
TIME_SYSTEM    = UTC
MEAN_ELEMENT_THEORY = SGP/SGP4

EPOCH          = 2026-01-15T18:48:46.614240
MEAN_MOTION    = 14.96911269
ECCENTRICITY   = .0019387
INCLINATION    = 82.5189
RA_OF_ASC_NODE = 287.9608
ARG_OF_PERICENTER = 116.9241
MEAN_ANOMALY   = 243.3965

EPHEMERIS_TYPE = 0
CLASSIFICATION_TYPE = U
NORAD_CAT_ID   = 22286
ELEMENT_SET_NO = 999
REV_AT_EPOCH   = 76814
BSTAR          = .11428E-3
MEAN_MOTION_DOT = .1343E-4
MEAN_MOTION_DDOT = 0

