SL-14 R/B               
1 21423U 91042B   26015.74913802  .00000259  00000+0  29744-4 0  9991
2 21423  82.4928 269.8356 0018380  57.7557 302.5435 14.81774346845231
ERS-1                   
1 21574U 91050A   26015.65974243  .00000207  00000+0  81109-4 0  9999
2 21574  98.7897  32.5624 0031978   1.5808 358.5474 14.39396072808108
ARIANE 40 R/B           
1 21610U 91050F   26015.69802256  .00000191  00000+0  69692-4 0  9993
2 21610  98.2116  69.8954 0002367 216.2446 143.8584 14.42844416811352
INTERCOSMOS 25          
1 21819U 91086A   26015.81619660  .00000642  00000+0  12668-3 0  9993
2 21819  82.6086 341.9633 1486006 230.8909 115.0609 12.11855329490280
SL-8 R/B                
1 21876U 92008B   26015.78288507  .00000058  00000+0  44867-4 0  9997
2 21876  82.9289 307.1285 0033392 283.3292 133.3116 13.75966299702148
SL-8 R/B                
1 21938U 92020B   26015.59364313  .00000151  00000+0  14085-3 0  9991
2 21938  82.9295 193.1769 0030251  86.3484 340.8705 13.75537940693830
USA 81                  
1 21949U 92023A   26015.84595921  .00000143  00000+0  45755-4 0  9995
2 21949  85.0103 161.9075 0001740 117.6379 242.4991 14.32342409 87221
COSMOS 2219             
1 22219U 92076A   26015.75004592 -.00000076  00000+0 -15074-4 0  9991
2 22219  71.0619 128.7393 0020699 280.2580  79.6208 14.14081360710891
SL-16 R/B               
1 22220U 92076B   26015.73811376  .00000107  00000+0  77053-4 0  9995
2 22220  71.0015 299.9155 0012924 186.5043 191.3671 14.16849858714339
COSMOS 2221             
1 22236U 92080A   26015.86671950  .00001460  00000+0  12784-3 0  9995
2 22236  82.5059 329.6575 0015117  17.0684 343.1043 14.95929034772891
SL-16 R/B               
1 22285U 92093B   26015.73676259  .00000284  00000+0  16997-3 0  9999
2 22285  71.0222 115.4311 0003752 356.8886   3.2213 14.15437313705669
COSMOS 2228             
1 22286U 92094A   26015.78387285  .00001343  00000+0  11428-3 0  9995
2 22286  82.5189 287.9608 0019387 116.9241 243.3965 14.96911269768143
